1 44754U 19074AT  22365.07712940  .00005196  00000-0  36739-3 0  9995
2 44754  53.0546  14.7760 0002590  32.1858 327.9289 15.06407337173385
1 44754U 19074AT  22365.34252093  .00006872  00000-0  47965-3 0  9998
2 44754  53.0556  13.5861 0002449  35.6475 324.4677 15.06413049173257
1 44754U 19074AT  22365.74060175  .00004950  00000-0  35093-3 0  9994
2 44754  53.0559  11.7999 0002740  37.6601 322.4579 15.06408795173317
1 44754U 19074AT  23001.33772089 -.00005157  00000-0 -32755-3 0  9995
2 44754  53.0568   9.1178 0002189  35.1489 324.9644 15.06396954173404
1 44754U 19074AT  23001.33772089 -.00005157  00000-0 -32755-3 0  9995
2 44754  53.0568   9.1178 0002189  35.1489 324.9644 15.06396954173572
1 44754U 19074AT  23001.73580591 -.00002135  00000-0 -12446-3 0  9992
2 44754  53.0570   7.3313 0002451  32.4585 327.6554 15.06392461173462
1 44754U 19074AT  23002.39927545  .00008835  00000-0  61122-3 0  9995
2 44754  53.0556   4.3527 0002439  31.8755 328.2381 15.06402979173560
1 44754U 19074AT  23002.39927545  .00008835  00000-0  61122-3 0  9995
2 44754  53.0556   4.3527 0002439  31.8755 328.2381 15.06402979173739
1 44754U 19074AT  23002.73101279  .00005789  00000-0  40728-3 0  9995
2 44754  53.0553   2.8636 0002565  35.0093 325.1064 15.06396190173619
1 44754U 19074AT  23002.73101279  .00005789  00000-0  40728-3 0  9995
2 44754  53.0553   2.8636 0002565  35.0093 325.1064 15.06396190173787
1 44754U 19074AT  23003.39448404  .00002871  00000-0  21163-3 0  9993
2 44754  53.0560 359.8851 0002569  33.4178 326.6973 15.06394968173718
1 44754U 19074AT  23003.39448404  .00002871  00000-0  21163-3 0  9993
2 44754  53.0560 359.8851 0002569  33.4178 326.6973 15.06394968173886
1 44754U 19074AT  23004.38968800  .00002618  00000-0  19458-3 0  9993
2 44754  53.0551 355.4172 0002606  35.1032 325.0128 15.06400434173863
1 44754U 19074AT  23004.65507011  .00006499  00000-0  45467-3 0  9996
2 44754  53.0555 354.2261 0002599  35.2936 324.8224 15.06413188173907
1 44754U 19074AT  23004.65507011  .00006499  00000-0  45467-3 0  9996
2 44754  53.0555 354.2261 0002599  35.2936 324.8224 15.06413188174076
1 44754U 19074AT  23005.25218918  .00005611  00000-0  39514-3 0  9999
2 44754  53.0548 351.5476 0002591  33.2781 326.8371 15.06413002173994
1 44754U 19074AT  23005.25218918  .00005611  00000-0  39514-3 0  9999
2 44754  53.0548 351.5476 0002591  33.2781 326.8371 15.06413002174164
1 44754U 19074AT  23005.65026489  .00004566  00000-0  32508-3 0  9997
2 44754  53.0546 349.7606 0002520  36.2141 323.9018 15.06416129174058
1 44754U 19074AT  23006.24739163 -.00006100  00000-0 -39099-3 0  9993
2 44754  53.0549 347.0765 0002595  31.3648 328.7496 15.06389545174311
1 44754U 19074AT  23006.91086415 -.00002503  00000-0 -14919-3 0  9999
2 44754  53.0569 344.0995 0002437  32.3708 327.7430 15.06393547174244
1 44754U 19074AT  23007.04355780  .00000367  00000-0  43558-4 0  9994
2 44754  53.0569 343.5044 0002421  36.1205 323.9947 15.06400599174269
1 44754U 19074AT  23007.04355780  .00000367  00000-0  43558-4 0  9994
2 44754  53.0569 343.5044 0002421  36.1205 323.9947 15.06400599174438
1 44754U 19074AT  23007.90607191  .00000418  00000-0  46978-4 0  9991
2 44754  53.0560 339.6321 0002401  35.7579 324.3570 15.06389401174390
1 44754U 19074AT  23008.17145819  .00001315  00000-0  10717-3 0  9993
2 44754  53.0557 338.4402 0002218  40.6316 319.4838 15.06393000174430
1 44754U 19074AT  23008.17145819  .00001315  00000-0  10717-3 0  9993
2 44754  53.0557 338.4402 0002218  40.6316 319.4838 15.06393000174609
1 44754U 19074AT  23008.63588937  .00005174  00000-0  36616-3 0  9999
2 44754  53.0554 336.3551 0002367  38.6345 321.4813 15.06384363174509
1 44754U 19074AT  23009.29935177  .00001455  00000-0  11657-3 0  9990
2 44754  53.0556 333.3770 0002415  38.3191 321.7970 15.06402698174601
1 44754U 19074AT  23009.29935177  .00001455  00000-0  11657-3 0  9990
2 44754  53.0556 333.3770 0002415  38.3191 321.7970 15.06402698174779
1 44754U 19074AT  23009.89647636  .00001893  00000-0  14596-3 0  9997
2 44754  53.0550 330.6960 0002386  39.4787 320.6376 15.06397633174695
1 44754U 19074AT  23010.16185832 -.00000576  00000-0 -19715-4 0  9992
2 44754  53.0548 329.5040 0002444  41.4560 318.6614 15.06406338174735
1 44754U 19074AT  23010.89168129  .00000287  00000-0  38158-4 0  9991
2 44754  53.0559 326.2305 0002297  31.9009 328.2119 15.06395239174849
1 44754U 19074AT  23011.15706753  .00000977  00000-0  84527-4 0  9999
2 44754  53.0562 325.0381 0002303  36.7151 323.3995 15.06398929175054
1 44754U 19074AT  23011.55512942  .00001463  00000-0  11701-3 0  9992
2 44754  53.0586 323.2542 0001946  33.8050 326.3063 15.06422743174945
1 44754U 19074AT  23011.82051992  .00005371  00000-0  37899-3 0  9993
2 44754  53.0559 322.0610 0002301  35.1584 324.9557 15.06419252174988
1 44754U 19074AT  23011.82051992  .00005371  00000-0  37899-3 0  9993
2 44754  53.0559 322.0610 0002301  35.1584 324.9557 15.06419252175158
1 44754U 19074AT  23012.15226175  .00001131  00000-0  94831-4 0  9997
2 44754  53.0558 320.5707 0002142  37.9731 322.1409 15.06401802175208
1 44754U 19074AT  23012.88207478  .00000720  00000-0  67259-4 0  9999
2 44754  53.0569 317.2951 0002215  36.6926 323.4214 15.06402605175140
1 44754U 19074AT  23013.54553673  .00000474  00000-0  50720-4 0  9995
2 44754  53.0558 314.3169 0002074  40.6548 319.4596 15.06408042175245
1 44754U 19074AT  23013.54553673  .00000474  00000-0  50720-4 0  9995
2 44754  53.0558 314.3169 0002074  40.6548 319.4596 15.06408042175414
1 44754U 19074AT  23014.07631874 -.00002650  00000-0 -15904-3 0  9998
2 44754  53.0554 311.9343 0002142  40.4349 319.6799 15.06395748175493
1 44754U 19074AT  23014.80613046  .00001994  00000-0  15270-3 0  9994
2 44754  53.0556 308.6574 0002182  42.0171 318.0985 15.06405323175603
1 44754U 19074AT  23015.20420048  .00006171  00000-0  43256-3 0  9994
2 44754  53.0543 306.8723 0002320  47.3816 312.7368 15.06420979175490
1 44754U 19074AT  23015.20420048  .00006171  00000-0  43256-3 0  9994
2 44754  53.0543 306.8723 0002320  47.3816 312.7368 15.06420979175669
1 44754U 19074AT  23015.80134797 -.00003192  00000-0 -19563-3 0  9999
2 44754  53.0555 304.1902 0001672  47.5227 312.5903 15.06375810175755
1 44754U 19074AT  23015.93404343 -.00002036  00000-0 -11785-3 0  9994
2 44754  53.0552 303.5955 0001813  44.3395 315.7739 15.06378653175605
1 44754U 19074AT  23016.06673373 -.00001841  00000-0 -10480-3 0  9994
2 44754  53.0552 302.9983 0001603  53.0596 307.0539 15.06382974175621
1 44754U 19074AT  23016.06673373 -.00001841  00000-0 -10480-3 0  9994
2 44754  53.0552 302.9983 0001603  53.0596 307.0539 15.06382974175799
1 44754U 19074AT  23016.79656415 -.00005483  00000-0 -34980-3 0  9999
2 44754  53.0534 299.7240 0001704  52.2515 307.8628 15.06361965175909
1 44754U 19074AT  23016.86291226 -.00003693  00000-0 -22934-3 0  9999
2 44754  53.0535 299.4267 0001753  58.4424 301.6736 15.06364114175740
1 44754U 19074AT  23017.46004614  .00012957  00000-0  88765-3 0  9994
2 44754  53.0527 296.7436 0001358  77.1874 282.9267 15.06377998175831
1 44754U 19074AT  23017.46004614  .00012957  00000-0  88765-3 0  9994
2 44754  53.0527 296.7436 0001358  77.1874 282.9267 15.06377998176001
1 44754U 19074AT  23017.79178276  .00017203  00000-0  11712-2 0  9992
2 44754  53.0529 295.2542 0001325  78.7502 281.3636 15.06392146175884
1 44754U 19074AT  23018.18985912  .00034548  00000-0  23252-2 0  9992
2 44754  53.0527 293.4677 0001359  82.2776 277.8367 15.06427039176119
1 44754U 19074AT  23018.45524654  .00018469  00000-0  12549-2 0  9995
2 44754  53.0535 292.2738 0001716  72.0504 288.0672 15.06419425175983
1 44754U 19074AT  23018.45524654  .00018469  00000-0  12549-2 0  9995
2 44754  53.0535 292.2738 0001716  72.0504 288.0672 15.06419425176153
1 44754U 19074AT  23018.91966930  .00011473  00000-0  78746-3 0  9993
2 44754  53.0528 290.1924 0001210  82.5588 277.5538 15.06419858176059
1 44754U 19074AT  23019.11870548  .00009129  00000-0  63062-3 0  9995
2 44754  53.0516 289.2968 0001312  85.2246 274.8893 15.06421608176259
1 44754U 19074AT  23019.45044475  .00001078  00000-0  91240-4 0  9999
2 44754  53.0515 287.8082 0001251  92.3008 267.8124 15.06402290176138
1 44754U 19074AT  23019.45044475  .00001078  00000-0  91240-4 0  9999
2 44754  53.0515 287.8082 0001251  92.3008 267.8124 15.06402290176307
1 44754U 19074AT  23019.84852889 -.00001482  00000-0 -80671-4 0  9995
2 44754  53.0522 286.0210 0001295  95.8699 264.2437 15.06391629176368
1 44754U 19074AT  23020.44565814  .00007120  00000-0  49658-3 0  9994
2 44754  53.0518 283.3396 0001681  93.0359 267.0822 15.06387621176287
1 44754U 19074AT  23021.10912638  .00012211  00000-0  83715-3 0  9997
2 44754  53.0518 280.3618 0001348  96.9942 263.1200 15.06404646176555
1 44754U 19074AT  23021.44086131  .00007648  00000-0  53174-3 0  9998
2 44754  53.0516 278.8728 0001277  96.5733 263.5402 15.06401250176604
1 44754U 19074AT  23022.10432314  .00010643  00000-0  73192-3 0  9991
2 44754  53.0518 275.8939 0001310  93.4908 266.6231 15.06418490176704
1 44754U 19074AT  23023.09952701  .00002259  00000-0  17051-3 0  9993
2 44754  53.0515 271.4236 0001302 107.4837 252.6294 15.06402411176857
1 44754U 19074AT  23024.82454282  .00001272  00000-0  10428-3 0  9991
2 44754  53.0512 263.6783 0001394 119.1463 240.9665 15.06402700177113
1 44754U 19074AT  23025.35531860  .00000885  00000-0  78282-4 0  9990
2 44754  53.0514 261.2967 0001018  84.4698 275.6407 15.06400289177029
1 44754U 19074AT  23025.81975029 -.00001994  00000-0 -11505-3 0  9998
2 44754  53.0523 259.2152 0001017  89.0749 271.0356 15.06396804177096
1 44754U 19074AT  23025.81975029 -.00001994  00000-0 -11505-3 0  9998
2 44754  53.0523 259.2152 0001017  89.0749 271.0356 15.06396804177265
1 44754U 19074AT  23026.01878920 -.00000821  00000-0 -36236-4 0  9990
2 44754  53.0512 258.3217 0001080  88.9851 271.1262 15.06398152177127
1 44754U 19074AT  23026.88129632  .00001675  00000-0  13132-3 0  9999
2 44754  53.0504 254.4484 0000963  96.9314 263.1784 15.06404043177423
